{
  "type": "FeatureCollection",
  "features": [
    {
      "type": "Feature",
      "properties": {
        "norad_id": 64694,
        "name": "GOSAT-GW (IBUKI GW)",
        "group": "resource",
        "lat": 56.45434509660547,
        "lon": -84.45222666221979,
        "alt_km": 662.5333629602028,
        "timestamp": "2025-12-18T10:51:25.447222+00:00",
        "meta_object_name": "GOSAT-GW (IBUKI GW)",
        "meta_object_id": "2025-141A",
        "meta_epoch": "2025-12-17T23:08:32.693856",
        "meta_mean_motion": 14.67563407,
        "meta_eccentricity": 0.00014365,
        "meta_inclination": 98.0432,
        "meta_ra_of_asc_node": 287.3825,
        "meta_arg_of_pericenter": 83.6786,
        "meta_mean_anomaly": 276.4583,
        "meta_ephemeris_type": 0,
        "meta_classification_type": "U",
        "meta_norad_cat_id": 64694,
        "meta_element_set_no": 999,
        "meta_rev_at_epoch": 2526,
        "meta_bstar": 0.0001486248,
        "meta_mean_motion_dot": 7.96e-06,
        "meta_mean_motion_ddot": 0,
        "tle_line1": "1 64694U 25141A   25351.96426729  .00000796  00000+0  14862-3 0  9998",
        "tle_line2": "2 64694  98.0432 287.3825 0001436  83.6786 276.4583 14.67563407 25267"
      },
      "geometry": {
        "type": "Point",
        "coordinates": [
          -84.45222666221979,
          56.45434509660547
        ]
      }
    },
    {
      "type": "Feature",
      "properties": {
        "norad_id": 64876,
        "name": "IONOSFERA-M 3",
        "group": "resource",
        "lat": -12.914028674468586,
        "lon": 132.1733674384922,
        "alt_km": 826.1238021034023,
        "timestamp": "2025-12-18T10:51:25.447233+00:00",
        "meta_object_name": "IONOSFERA-M 3",
        "meta_object_id": "2025-155A",
        "meta_epoch": "2025-12-17T22:07:35.964192",
        "meta_mean_motion": 14.21442287,
        "meta_eccentricity": 0.00020957,
        "meta_inclination": 98.5789,
        "meta_ra_of_asc_node": 313.6415,
        "meta_arg_of_pericenter": 51.4754,
        "meta_mean_anomaly": 308.6611,
        "meta_ephemeris_type": 0,
        "meta_classification_type": "U",
        "meta_norad_cat_id": 64876,
        "meta_element_set_no": 999,
        "meta_rev_at_epoch": 2065,
        "meta_bstar": 4.2056361e-05,
        "meta_mean_motion_dot": 4.9e-07,
        "meta_mean_motion_ddot": 0,
        "tle_line1": "1 64876U 25155A   25351.92194403  .00000049  00000+0  42056-4 0  9990",
        "tle_line2": "2 64876  98.5789 313.6415 0002095  51.4754 308.6611 14.21442287 20657"
      },
      "geometry": {
        "type": "Point",
        "coordinates": [
          132.1733674384922,
          -12.914028674468586
        ]
      }
    },
    {
      "type": "Feature",
      "properties": {
        "norad_id": 64877,
        "name": "IONOSFERA-M 4",
        "group": "resource",
        "lat": 13.33369683587994,
        "lon": -47.97399920307938,
        "alt_km": 820.7308328584086,
        "timestamp": "2025-12-18T10:51:25.447245+00:00",
        "meta_object_name": "IONOSFERA-M 4",
        "meta_object_id": "2025-155B",
        "meta_epoch": "2025-12-17T22:58:05.331360",
        "meta_mean_motion": 14.21443479,
        "meta_eccentricity": 0.00014825,
        "meta_inclination": 98.5787,
        "meta_ra_of_asc_node": 313.595,
        "meta_arg_of_pericenter": 58.3134,
        "meta_mean_anomaly": 301.8189,
        "meta_ephemeris_type": 0,
        "meta_classification_type": "U",
        "meta_norad_cat_id": 64877,
        "meta_element_set_no": 999,
        "meta_rev_at_epoch": 2065,
        "meta_bstar": 4.2549903e-05,
        "meta_mean_motion_dot": 5e-07,
        "meta_mean_motion_ddot": 0,
        "tle_line1": "1 64877U 25155B   25351.95700615  .00000050  00000+0  42550-4 0  9993",
        "tle_line2": "2 64877  98.5787 313.5950 0001482  58.3134 301.8189 14.21443479 20655"
      },
      "geometry": {
        "type": "Point",
        "coordinates": [
          -47.97399920307938,
          13.33369683587994
        ]
      }
    },
    {
      "type": "Feature",
      "properties": {
        "norad_id": 64899,
        "name": "MICROCARB",
        "group": "resource",
        "lat": 51.711762921138586,
        "lon": -102.02902232104952,
        "alt_km": 637.4335117254268,
        "timestamp": "2025-12-18T10:51:25.447255+00:00",
        "meta_object_name": "MICROCARB",
        "meta_object_id": "2025-156A",
        "meta_epoch": "2025-12-17T17:58:01.525728",
        "meta_mean_motion": 14.72065231,
        "meta_eccentricity": 0.0017424,
        "meta_inclination": 98.0022,
        "meta_ra_of_asc_node": 67.0137,
        "meta_arg_of_pericenter": 129.5895,
        "meta_mean_anomaly": 230.6855,
        "meta_ephemeris_type": 0,
        "meta_classification_type": "U",
        "meta_norad_cat_id": 64899,
        "meta_element_set_no": 999,
        "meta_rev_at_epoch": 2127,
        "meta_bstar": 9.9454238e-05,
        "meta_mean_motion_dot": 5.77e-06,
        "meta_mean_motion_ddot": 0,
        "tle_line1": "1 64899U 25156A   25351.74862877  .00000577  00000+0  99454-4 0  9993",
        "tle_line2": "2 64899  98.0022  67.0137 0017424 129.5895 230.6855 14.72065231 21272"
      },
      "geometry": {
        "type": "Point",
        "coordinates": [
          -102.02902232104952,
          51.711762921138586
        ]
      }
    },
    {
      "type": "Feature",
      "properties": {
        "norad_id": 64900,
        "name": "CO3D 3",
        "group": "resource",
        "lat": 75.31169461664322,
        "lon": 38.85922016933626,
        "alt_km": 497.1719585233086,
        "timestamp": "2025-12-18T10:51:25.447266+00:00",
        "meta_object_name": "CO3D 3",
        "meta_object_id": "2025-156B",
        "meta_epoch": "2025-12-17T21:52:49.539936",
        "meta_mean_motion": 15.20205468,
        "meta_eccentricity": 0.00013203,
        "meta_inclination": 97.4345,
        "meta_ra_of_asc_node": 68.2045,
        "meta_arg_of_pericenter": 82.4945,
        "meta_mean_anomaly": 277.644,
        "meta_ephemeris_type": 0,
        "meta_classification_type": "U",
        "meta_norad_cat_id": 64900,
        "meta_element_set_no": 999,
        "meta_rev_at_epoch": 2199,
        "meta_bstar": 6.5141997e-05,
        "meta_mean_motion_dot": 1.343e-05,
        "meta_mean_motion_ddot": 0,
        "tle_line1": "1 64900U 25156B   25351.91168449  .00001343  00000+0  65142-4 0  9998",
        "tle_line2": "2 64900  97.4345  68.2045 0001320  82.4945 277.6440 15.20205468 21990"
      },
      "geometry": {
        "type": "Point",
        "coordinates": [
          38.85922016933626,
          75.31169461664322
        ]
      }
    },
    {
      "type": "Feature",
      "properties": {
        "norad_id": 64901,
        "name": "CO3D 4",
        "group": "resource",
        "lat": 74.51845976948292,
        "lon": 40.609643553968816,
        "alt_km": 498.23844871553047,
        "timestamp": "2025-12-18T10:51:25.447276+00:00",
        "meta_object_name": "CO3D 4",
        "meta_object_id": "2025-156C",
        "meta_epoch": "2025-12-17T23:27:50.922144",
        "meta_mean_motion": 15.20215608,
        "meta_eccentricity": 0.00011842,
        "meta_inclination": 97.4345,
        "meta_ra_of_asc_node": 68.2701,
        "meta_arg_of_pericenter": 178.6753,
        "meta_mean_anomaly": 181.4485,
        "meta_ephemeris_type": 0,
        "meta_classification_type": "U",
        "meta_norad_cat_id": 64901,
        "meta_element_set_no": 999,
        "meta_rev_at_epoch": 2200,
        "meta_bstar": 0.00024181959,
        "meta_mean_motion_dot": 5.173e-05,
        "meta_mean_motion_ddot": 0,
        "tle_line1": "1 64901U 25156C   25351.97767271  .00005173  00000+0  24182-3 0  9996",
        "tle_line2": "2 64901  97.4345  68.2701 0001184 178.6753 181.4485 15.20215608 22004"
      },
      "geometry": {
        "type": "Point",
        "coordinates": [
          40.609643553968816,
          74.51845976948292
        ]
      }
    },
    {
      "type": "Feature",
      "properties": {
        "norad_id": 64902,
        "name": "CO3D 2",
        "group": "resource",
        "lat": -69.3969426737851,
        "lon": -128.55705449100623,
        "alt_km": 734.9476164087673,
        "timestamp": "2025-12-18T10:51:25.447287+00:00",
        "meta_object_name": "CO3D 2",
        "meta_object_id": "2025-156D",
        "meta_epoch": "2025-12-17T16:22:38.080416",
        "meta_mean_motion": 15.1961406,
        "meta_eccentricity": 0.03739507,
        "meta_inclination": 96.5359,
        "meta_ra_of_asc_node": 68.5306,
        "meta_arg_of_pericenter": 43.1546,
        "meta_mean_anomaly": 319.8361,
        "meta_ephemeris_type": 0,
        "meta_classification_type": "U",
        "meta_norad_cat_id": 64902,
        "meta_element_set_no": 999,
        "meta_rev_at_epoch": 2195,
        "meta_bstar": -1.8482e-06,
        "meta_mean_motion_dot": -7.34e-06,
        "meta_mean_motion_ddot": 1.361317e-06,
        "tle_line1": "1 64902U 25156D   25351.68238519 -.00000734  13613-5 -18482-5 0  9991",
        "tle_line2": "2 64902  96.5359  68.5306 0373950  43.1546 319.8361 15.19614060 21959"
      },
      "geometry": {
        "type": "Point",
        "coordinates": [
          -128.55705449100623,
          -69.3969426737851
        ]
      }
    }
  ]
}